DELTA 2 R/B(1)          
1 20453U 90008B   26002.02672951  .00073093  00000+0  11036-2 0  9997
2 20453  35.6053 249.3558 0106329   2.3962 357.7263 15.47215793915773
COSMOS 2058             
1 20465U 90010A   26001.76301681  .00008076  00000+0  48549-3 0  9991
2 20465  82.4720 113.3370 0009982 200.5542 159.5288 15.10696117932139
SL-14 R/B               
1 20466U 90010B   26002.31793105  .00000952  00000+0  11253-3 0  9997
2 20466  82.5031 329.7200 0020412 154.4889 205.7338 14.83495776918640
SL-14 R/B               
1 20511U 90018B   26002.20431659  .00000957  00000+0  11743-3 0  9996
2 20511  82.5221 285.2390 0015331 314.8790  45.1178 14.82072876912738
HST                     
1 20580U 90037B   26001.71032804  .00011638  00000+0  40139-3 0  9996
2 20580  28.4657 136.5263 0002604  92.0873 268.0020 15.28338358763051
SL-16 R/B               
1 20625U 90046B   26002.31742683  .00000304  00000+0  18138-3 0  9998
2 20625  70.9994  77.3074 0012675  38.5086 321.6938 14.14999801839002
COSMOS 2084             
1 20663U 90055A   26001.96500962  .00005251  00000+0  37734-3 0  9991
2 20663  62.7889 203.0722 0028418 177.5920 182.5323 15.05158119926275
SL-6 R/B(2)             
1 20666U 90055D   26001.72516262  .00004908  00000+0  37458-3 0  9999
2 20666  62.7837 121.5029 0015165 322.0080  37.9949 15.03193129928125
SL-8 R/B                
1 20775U 90078B   26002.19724175  .00020730  00000+0  63611-3 0  9992
2 20775  82.9063 310.9883 0369342 236.9970 119.5256 14.86680264799410
SL-8 R/B                
1 21088U 91006B   26002.32983741  .00000058  00000+0  43449-4 0  9992
2 21088  82.9409 219.3970 0021625 218.9232 315.3257 13.77492877754936
OKEAN-3                 
1 21397U 91039A   26002.17129087  .00005796  00000+0  41393-3 0  9998
2 21397  82.5157  41.2677 0013892 190.5071 169.5868 15.04264390855033
COSMOS 2151             
1 21422U 91042A   26002.23983190  .00003584  00000+0  28751-3 0  9997
2 21422  82.4969 147.7471 0011196 285.5516  74.4471 14.99787854853232
