CCSDS_OMM_VERS = 2.0
CREATION_DATE  = 
ORIGINATOR     = 

OBJECT_NAME    = DELTA 2 R/B(1)
OBJECT_ID      = 1990-008B
CENTER_NAME    = EARTH
REF_FRAME      = TEME
TIME_SYSTEM    = UTC
MEAN_ELEMENT_THEORY = SGP/SGP4

EPOCH          = 2026-01-02T00:38:29.429664
MEAN_MOTION    = 15.47215793
ECCENTRICITY   = .01063293
INCLINATION    = 35.6053
RA_OF_ASC_NODE = 249.3558
ARG_OF_PERICENTER = 2.3962
MEAN_ANOMALY   = 357.7263

EPHEMERIS_TYPE = 0
CLASSIFICATION_TYPE = U
NORAD_CAT_ID   = 20453
ELEMENT_SET_NO = 999
REV_AT_EPOCH   = 91577
BSTAR          = .11036347E-2
MEAN_MOTION_DOT = .73093E-3
MEAN_MOTION_DDOT = 0

CCSDS_OMM_VERS = 2.0
CREATION_DATE  = 
ORIGINATOR     = 

OBJECT_NAME    = COSMOS 2058
OBJECT_ID      = 1990-010A
CENTER_NAME    = EARTH
REF_FRAME      = TEME
TIME_SYSTEM    = UTC
MEAN_ELEMENT_THEORY = SGP/SGP4

EPOCH          = 2026-01-01T18:18:44.652384
MEAN_MOTION    = 15.10696117
ECCENTRICITY   = .00099823
INCLINATION    = 82.4720
RA_OF_ASC_NODE = 113.3370
ARG_OF_PERICENTER = 200.5542
MEAN_ANOMALY   = 159.5288

EPHEMERIS_TYPE = 0
CLASSIFICATION_TYPE = U
NORAD_CAT_ID   = 20465
ELEMENT_SET_NO = 999
REV_AT_EPOCH   = 93213
BSTAR          = .48549179E-3
MEAN_MOTION_DOT = .8076E-4
MEAN_MOTION_DDOT = 0

CCSDS_OMM_VERS = 2.0
CREATION_DATE  = 
ORIGINATOR     = 

OBJECT_NAME    = SL-14 R/B
OBJECT_ID      = 1990-010B
CENTER_NAME    = EARTH
REF_FRAME      = TEME
TIME_SYSTEM    = UTC
MEAN_ELEMENT_THEORY = SGP/SGP4

EPOCH          = 2026-01-02T07:37:49.242720
MEAN_MOTION    = 14.83495776
ECCENTRICITY   = .00204121
INCLINATION    = 82.5031
RA_OF_ASC_NODE = 329.7200
ARG_OF_PERICENTER = 154.4889
MEAN_ANOMALY   = 205.7338

EPHEMERIS_TYPE = 0
CLASSIFICATION_TYPE = U
NORAD_CAT_ID   = 20466
ELEMENT_SET_NO = 999
REV_AT_EPOCH   = 91864
BSTAR          = .11252734E-3
MEAN_MOTION_DOT = .952E-5
MEAN_MOTION_DDOT = 0

CCSDS_OMM_VERS = 2.0
CREATION_DATE  = 
ORIGINATOR     = 

OBJECT_NAME    = SL-14 R/B
OBJECT_ID      = 1990-018B
CENTER_NAME    = EARTH
REF_FRAME      = TEME
TIME_SYSTEM    = UTC
MEAN_ELEMENT_THEORY = SGP/SGP4

EPOCH          = 2026-01-02T04:54:12.953376
MEAN_MOTION    = 14.82072876
ECCENTRICITY   = .00153313
INCLINATION    = 82.5221
RA_OF_ASC_NODE = 285.2390
ARG_OF_PERICENTER = 314.8790
MEAN_ANOMALY   = 45.1178

EPHEMERIS_TYPE = 0
CLASSIFICATION_TYPE = U
NORAD_CAT_ID   = 20511
ELEMENT_SET_NO = 999
REV_AT_EPOCH   = 91273
BSTAR          = .11742999E-3
MEAN_MOTION_DOT = .957E-5
MEAN_MOTION_DDOT = 0

CCSDS_OMM_VERS = 2.0
CREATION_DATE  = 
ORIGINATOR     = 

OBJECT_NAME    = HST
OBJECT_ID      = 1990-037B
CENTER_NAME    = EARTH
REF_FRAME      = TEME
TIME_SYSTEM    = UTC
MEAN_ELEMENT_THEORY = SGP/SGP4

EPOCH          = 2026-01-01T17:02:52.342656
MEAN_MOTION    = 15.28338358
ECCENTRICITY   = .0002604
INCLINATION    = 28.4657
RA_OF_ASC_NODE = 136.5263
ARG_OF_PERICENTER = 92.0873
MEAN_ANOMALY   = 268.0020

EPHEMERIS_TYPE = 0
CLASSIFICATION_TYPE = U
NORAD_CAT_ID   = 20580
ELEMENT_SET_NO = 999
REV_AT_EPOCH   = 76305
BSTAR          = .40138616E-3
MEAN_MOTION_DOT = .11638E-3
MEAN_MOTION_DDOT = 0

CCSDS_OMM_VERS = 2.0
CREATION_DATE  = 
ORIGINATOR     = 

OBJECT_NAME    = SL-16 R/B
OBJECT_ID      = 1990-046B
CENTER_NAME    = EARTH
REF_FRAME      = TEME
TIME_SYSTEM    = UTC
MEAN_ELEMENT_THEORY = SGP/SGP4

EPOCH          = 2026-01-02T07:37:05.678112
MEAN_MOTION    = 14.14999801
ECCENTRICITY   = .00126757
INCLINATION    = 70.9994
RA_OF_ASC_NODE = 77.3074
ARG_OF_PERICENTER = 38.5086
MEAN_ANOMALY   = 321.6938

EPHEMERIS_TYPE = 0
CLASSIFICATION_TYPE = U
NORAD_CAT_ID   = 20625
ELEMENT_SET_NO = 999
REV_AT_EPOCH   = 83900
BSTAR          = .18137951E-3
MEAN_MOTION_DOT = .304E-5
MEAN_MOTION_DDOT = 0

CCSDS_OMM_VERS = 2.0
CREATION_DATE  = 
ORIGINATOR     = 

OBJECT_NAME    = COSMOS 2084
OBJECT_ID      = 1990-055A
CENTER_NAME    = EARTH
REF_FRAME      = TEME
TIME_SYSTEM    = UTC
MEAN_ELEMENT_THEORY = SGP/SGP4

EPOCH          = 2026-01-01T23:09:36.831168
MEAN_MOTION    = 15.05158119
ECCENTRICITY   = .0028418
INCLINATION    = 62.7889
RA_OF_ASC_NODE = 203.0722
ARG_OF_PERICENTER = 177.5920
MEAN_ANOMALY   = 182.5323

EPHEMERIS_TYPE = 0
CLASSIFICATION_TYPE = U
NORAD_CAT_ID   = 20663
ELEMENT_SET_NO = 999
REV_AT_EPOCH   = 92627
BSTAR          = .37734E-3
MEAN_MOTION_DOT = .5251E-4
MEAN_MOTION_DDOT = 0

CCSDS_OMM_VERS = 2.0
CREATION_DATE  = 
ORIGINATOR     = 

OBJECT_NAME    = SL-6 R/B(2)
OBJECT_ID      = 1990-055D
CENTER_NAME    = EARTH
REF_FRAME      = TEME
TIME_SYSTEM    = UTC
MEAN_ELEMENT_THEORY = SGP/SGP4

EPOCH          = 2026-01-01T17:24:14.050368
MEAN_MOTION    = 15.03193129
ECCENTRICITY   = .00151658
INCLINATION    = 62.7837
RA_OF_ASC_NODE = 121.5029
ARG_OF_PERICENTER = 322.0080
MEAN_ANOMALY   = 37.9949

EPHEMERIS_TYPE = 0
CLASSIFICATION_TYPE = U
NORAD_CAT_ID   = 20666
ELEMENT_SET_NO = 999
REV_AT_EPOCH   = 92812
BSTAR          = .37458456E-3
MEAN_MOTION_DOT = .4908E-4
MEAN_MOTION_DDOT = 0

CCSDS_OMM_VERS = 2.0
CREATION_DATE  = 
ORIGINATOR     = 

OBJECT_NAME    = SL-8 R/B
OBJECT_ID      = 1990-078B
CENTER_NAME    = EARTH
REF_FRAME      = TEME
TIME_SYSTEM    = UTC
MEAN_ELEMENT_THEORY = SGP/SGP4

EPOCH          = 2026-01-02T04:44:01.687200
MEAN_MOTION    = 14.86680264
ECCENTRICITY   = .03693429
INCLINATION    = 82.9063
RA_OF_ASC_NODE = 310.9883
ARG_OF_PERICENTER = 236.9970
MEAN_ANOMALY   = 119.5256

EPHEMERIS_TYPE = 0
CLASSIFICATION_TYPE = U
NORAD_CAT_ID   = 20775
ELEMENT_SET_NO = 999
REV_AT_EPOCH   = 79941
BSTAR          = .6361113E-3
MEAN_MOTION_DOT = .2073E-3
MEAN_MOTION_DDOT = 0

CCSDS_OMM_VERS = 2.0
CREATION_DATE  = 
ORIGINATOR     = 

OBJECT_NAME    = SL-8 R/B
OBJECT_ID      = 1991-006B
CENTER_NAME    = EARTH
REF_FRAME      = TEME
TIME_SYSTEM    = UTC
MEAN_ELEMENT_THEORY = SGP/SGP4

EPOCH          = 2026-01-02T07:54:57.952224
MEAN_MOTION    = 13.77492877
ECCENTRICITY   = .00216259
INCLINATION    = 82.9409
RA_OF_ASC_NODE = 219.3970
ARG_OF_PERICENTER = 218.9232
MEAN_ANOMALY   = 315.3257

EPHEMERIS_TYPE = 0
CLASSIFICATION_TYPE = U
NORAD_CAT_ID   = 21088
ELEMENT_SET_NO = 999
REV_AT_EPOCH   = 75493
BSTAR          = .43448831E-4
MEAN_MOTION_DOT = .58E-6
MEAN_MOTION_DDOT = 0

CCSDS_OMM_VERS = 2.0
CREATION_DATE  = 
ORIGINATOR     = 

OBJECT_NAME    = OKEAN-3
OBJECT_ID      = 1991-039A
CENTER_NAME    = EARTH
REF_FRAME      = TEME
TIME_SYSTEM    = UTC
MEAN_ELEMENT_THEORY = SGP/SGP4

EPOCH          = 2026-01-02T04:06:39.531168
MEAN_MOTION    = 15.04264390
ECCENTRICITY   = .00138929
INCLINATION    = 82.5157
RA_OF_ASC_NODE = 41.2677
ARG_OF_PERICENTER = 190.5071
MEAN_ANOMALY   = 169.5868

EPHEMERIS_TYPE = 0
CLASSIFICATION_TYPE = U
NORAD_CAT_ID   = 21397
ELEMENT_SET_NO = 999
REV_AT_EPOCH   = 85503
BSTAR          = .41392801E-3
MEAN_MOTION_DOT = .5796E-4
MEAN_MOTION_DDOT = 0

CCSDS_OMM_VERS = 2.0
CREATION_DATE  = 
ORIGINATOR     = 

OBJECT_NAME    = COSMOS 2151
OBJECT_ID      = 1991-042A
CENTER_NAME    = EARTH
REF_FRAME      = TEME
TIME_SYSTEM    = UTC
MEAN_ELEMENT_THEORY = SGP/SGP4

EPOCH          = 2026-01-02T05:45:21.476160
MEAN_MOTION    = 14.99787854
ECCENTRICITY   = .00111967
INCLINATION    = 82.4969
RA_OF_ASC_NODE = 147.7471
ARG_OF_PERICENTER = 285.5516
MEAN_ANOMALY   = 74.4471

EPHEMERIS_TYPE = 0
CLASSIFICATION_TYPE = U
NORAD_CAT_ID   = 21422
ELEMENT_SET_NO = 999
REV_AT_EPOCH   = 85323
BSTAR          = .28750595E-3
MEAN_MOTION_DOT = .3584E-4
MEAN_MOTION_DDOT = 0

